ORBCOMM FM20 [+]        
1 25416U 98046D   23283.52968389  .00002293  00000+0  85571-3 0  9997
2 25416  44.9940 210.0334 0001911 331.9557  28.1187 14.34475540315786
ORBCOMM FM16 [-]        
1 25417U 98046E   23283.89067155  .00003388  00000+0  12233-2 0  9999
2 25417  44.9936 205.4628 0003436  60.0754 300.0434 14.35176907315759
ORBCOMM FM15 [-]        
1 25418U 98046F   23283.87892590  .00002798  00000+0  10235-2 0  9991
2 25418  44.9968 209.1067 0002867  58.7488 301.3640 14.34937558315768
ORBCOMM FM14 [-]        
1 25419U 98046G   23283.87463236  .00003088  00000+0  11223-2 0  9994
2 25419  44.9959 208.4759 0002408  31.7048  75.4564 14.35044412315711
ORBCOMM FM13 [+]        
1 25420U 98046H   23283.52823780  .00002835  00000+0  10454-2 0  9996
2 25420  44.9972 213.9404 0004302  46.6829 313.4376 14.34505539314742
ORBCOMM FM21 [-]        
1 25475U 98053A   23283.75492410  .00002516  00000+0  93328-3 0  9999
2 25475  45.0085 296.9743 0002128 285.6052  74.4560 14.34526125308794
ORBCOMM FM22 [-]        
1 25476U 98053B   23283.72819021  .00003036  00000+0  11077-2 0  9996
2 25476  45.0082 295.1121 0002850 323.5443  36.5210 14.34887200308774
ORBCOMM FM23 [-]        
1 25477U 98053C   23283.57561551  .00002647  00000+0  97943-3 0  9996
2 25477  45.0087 300.2603 0002459 308.9222  51.1405 14.34500094308918
